ONEWEB-0210             
1 48787U 21045W   25197.81527991  .00002534  00000+0  66924-2 0  9994
2 48787  87.9072 326.0399 0002686 103.3742 256.7688 13.15568974200220
ONEWEB-0214             
1 48788U 21045X   25197.82466641  .00000022  00000+0  23372-4 0  9992
2 48788  87.9074 326.0271 0002310 105.5403 254.5982 13.15546815200193
ONEWEB-0221             
1 48789U 21045Y   25197.90722876 -.00000026  00000+0 -10261-3 0  9995
2 48789  87.9077 326.0397 0002156  96.8762 263.2614 13.15541070200292
ONEWEB-0213             
1 48790U 21045Z   25197.82004922  .00000121  00000+0  28688-3 0  9999
2 48790  87.9076 326.0638 0002214  97.9665 262.1717 13.15549698200342
ONEWEB-0212             
1 48791U 21045AA  25197.87315234  .00000127  00000+0  30409-3 0  9996
2 48791  87.9067 326.0360 0001893  97.6111 262.5234 13.15548428201484
ONEWEB-0227             
1 48792U 21045AB  25197.87233458  .00000109  00000+0  25492-3 0  9990
2 48792  87.9073 326.0552 0002035  96.4284 263.7078 13.15550021201427
ONEWEB-0226             
1 48793U 21045AC  25197.86601298  .00000029  00000+0  42678-4 0  9998
2 48793  87.9074 326.0603 0002299 101.1186 259.0203 13.15548744200261
ONEWEB-0224             
1 48794U 21045AD  25197.90561523 -.00000020  00000+0 -88039-4 0  9994
2 48794  87.9078 326.0902 0002150  71.5844 288.5520 13.15547185200194
